[{"OBJECT_NAME":"FLOCK 4G-15","OBJECT_ID":"2025-009BX","EPOCH":"2026-03-09T17:13:37.807680","MEAN_MOTION":15.27266411,"ECCENTRICITY":0.00036988,"INCLINATION":97.4054,"RA_OF_ASC_NODE":151.1927,"ARG_OF_PERICENTER":316.8208,"MEAN_ANOMALY":43.274,"EPHEMERIS_TYPE":0,"CLASSIFICATION_TYPE":"U","NORAD_CAT_ID":62678,"ELEMENT_SET_NO":999,"REV_AT_EPOCH":12135,"BSTAR":0.00047574812,"MEAN_MOTION_DOT":0.00012647,"MEAN_MOTION_DDOT":0},{"OBJECT_NAME":"STARLINK-36143","OBJECT_ID":"2025-294AC","EPOCH":"2026-03-09T07:35:34.890720","MEAN_MOTION":15.27577073,"ECCENTRICITY":0.00015423,"INCLINATION":43.0039,"RA_OF_ASC_NODE":40.049,"ARG_OF_PERICENTER":252.6337,"MEAN_ANOMALY":107.4346,"EPHEMERIS_TYPE":0,"CLASSIFICATION_TYPE":"U","NORAD_CAT_ID":67056,"ELEMENT_SET_NO":999,"REV_AT_EPOCH":1474,"BSTAR":0.00065286204,"MEAN_MOTION_DOT":0.00017745,"MEAN_MOTION_DDOT":0}]
